norad_id,name,regime,epoch,line1,line2,inclination,eccentricity,mean_motion,raan,arg_pericenter,mean_anomaly
19789,COSMOS 1998,LEO,25326.87245503,1 19789U 89009E   25326.87245503  .00000024  00000-0  72550-4 0  6167,2 19789  82.6092 103.2064 0016297  34.4152 325.7992 12.64927641697936,82.6092,0.0016297,12.64927641,103.2064,34.4152,325.7992
19789,COSMOS 1998,LEO,25326.87245504,1 19789U 89009E   25326.87245504  .00000024  00000-0  72550-4 0  8788,2 19789  82.6092 103.2064 0016297  34.4152 325.7993 12.64927641697937,82.6092,0.0016297,12.64927641,103.2064,34.4152,325.7993
19789,COSMOS 1998,LEO,25327.42612267,1 19789U 89009E   25327.42612267  .00000029  00000-0  99458-4 0  6176,2 19789  82.6093 102.8530 0016279  33.2061 327.0050 12.64927680698008,82.6093,0.0016279,12.6492768,102.853,33.2061,327.005
19789,COSMOS 1998,LEO,25327.74250417,1 19789U 89009E   25327.74250417  .00000036  00000-0  13360-3 0  6182,2 19789  82.6093 102.6509 0016265  32.5152 327.6939 12.64927697698044,82.6093,0.0016265,12.64927697,102.6509,32.5152,327.6939
19789,COSMOS 1998,LEO,25327.90069488,1 19789U 89009E   25327.90069488  .00000036  00000-0  13782-3 0  6195,2 19789  82.6093 102.5500 0016258  32.1618 328.0463 12.64927714698068,82.6093,0.0016258,12.64927714,102.55,32.1618,328.0463
19789,COSMOS 1998,LEO,25327.90069489,1 19789U 89009E   25327.90069489  .00000036  00000-0  13782-3 0  8839,2 19789  82.6093 102.5500 0016258  32.1618 328.0463 12.64927714698068,82.6093,0.0016258,12.64927714,102.55,32.1618,328.0463
19789,COSMOS 1998,LEO,25328.45436245,1 19789U 89009E   25328.45436245  .00000042  00000-0  17072-3 0  6200,2 19789  82.6094 102.1965 0016240  30.9519 329.2527 12.64927759698138,82.6094,0.001624,12.64927759,102.1965,30.9519,329.2527
19789,COSMOS 1998,LEO,25328.61255321,1 19789U 89009E   25328.61255321  .00000044  00000-0  17874-3 0  6215,2 19789  82.6094 102.0955 0016235  30.6032 329.6004 12.64927755698159,82.6094,0.0016235,12.64927755,102.0955,30.6032,329.6004
19789,COSMOS 1998,LEO,25328.84983946,1 19789U 89009E   25328.84983946  .00000037  00000-0  13927-3 0  6229,2 19789  82.6094 101.9440 0016217  30.0528 330.1492 12.64927678698185,82.6094,0.0016217,12.64927678,101.944,30.0528,330.1492
19789,COSMOS 1998,LEO,25329.32441167,1 19789U 89009E   25329.32441167  .00000040  00000-0  15806-3 0  8883,2 19789  82.6094 101.6410 0016201  29.0227 331.1763 12.64927716698248,82.6094,0.0016201,12.64927716,101.641,29.0227,331.1763
19789,COSMOS 1998,LEO,25329.40350700,1 19789U 89009E   25329.40350700  .00000040  00000-0  15709-3 0  6233,2 19789  82.6094 101.5905 0016198  28.8319 331.3665 12.64927726698255,82.6094,0.0016198,12.64927726,101.5905,28.8319,331.3665
19789,COSMOS 1998,LEO,25329.79898385,1 19789U 89009E   25329.79898385  .00000040  00000-0  15725-3 0  6240,2 19789  82.6093 101.3379 0016176  27.9686 332.2272 12.64927721698305,82.6093,0.0016176,12.64927721,101.3379,27.9686,332.2272
19789,COSMOS 1998,LEO,25329.87807914,1 19789U 89009E   25329.87807914  .00000047  00000-0  19643-3 0  8935,2 19789  82.6095 101.2875 0016169  27.7121 332.4830 12.64927781698310,82.6095,0.0016169,12.64927781,101.2875,27.7121,332.483
19789,COSMOS 1998,LEO,25330.11536520,1 19789U 89009E   25330.11536520  .00000049  00000-0  20529-3 0  6267,2 19789  82.6093 101.1360 0016163  27.1449 333.0486 12.64927785698348,82.6093,0.0016163,12.64927785,101.136,27.1449,333.0486
19789,COSMOS 1998,LEO,25330.35265138,1 19789U 89009E   25330.35265138  .00000044  00000-0  17679-3 0  8963,2 19789  82.6093 100.9845 0016153  26.6613 333.5307 12.64927753698374,82.6093,0.0016153,12.64927753,100.9845,26.6613,333.5307
19789,COSMOS 1998,LEO,25330.74812816,1 19789U 89009E   25330.74812816  .00000045  00000-0  18553-3 0  6283,2 19789  82.6094 100.7320 0016136  25.7826 334.4067 12.64927762698427,82.6094,0.0016136,12.64927762,100.732,25.7826,334.4067
19789,COSMOS 1998,LEO,25330.82722352,1 19789U 89009E   25330.82722352  .00000044  00000-0  17919-3 0  6292,2 19789  82.6094 100.6815 0016133  25.6010 334.5878 12.64927765698431,82.6094,0.0016133,12.64927765,100.6815,25.601,334.5878
19789,COSMOS 1998,LEO,25331.30179562,1 19789U 89009E   25331.30179562  .00000044  00000-0  18156-3 0  8998,2 19789  82.6095 100.3786 0016117  24.5338 335.6519 12.64927801698490,82.6095,0.0016117,12.64927801,100.3786,24.5338,335.6519
19789,COSMOS 1998,LEO,25331.85546302,1 19789U 89009E   25331.85546302  .00000046  00000-0  19048-3 0  9037,2 19789  82.6096 100.0251 0016094  23.3162 336.8657 12.64927872698563,82.6096,0.0016094,12.64927872,100.0251,23.3162,336.8657
19789,COSMOS 1998,LEO,25332.09274906,1 19789U 89009E   25332.09274906  .00000044  00000-0  18117-3 0  6347,2 19789  82.6096  99.8736 0016087  22.7623 337.4179 12.64927866698595,82.6096,0.0016087,12.64927866,99.8736,22.7623,337.4179
19789,COSMOS 1998,LEO,25332.64641643,1 19789U 89009E   25332.64641643  .00000047  00000-0  19452-3 0  9073,2 19789  82.6097  99.5202 0016060  21.4682 338.7081 12.64927910698667,82.6097,0.001606,12.6492791,99.5202,21.4682,338.7081
19789,COSMOS 1998,LEO,25332.80460703,1 19789U 89009E   25332.80460703  .00000054  00000-0  23347-3 0  6362,2 19789  82.6097  99.4191 0016055  21.1511 339.0242 12.64927994698682,82.6097,0.0016055,12.64927994,99.4191,21.1511,339.0242
19789,COSMOS 1998,LEO,25332.88370235,1 19789U 89009E   25332.88370235  .00000053  00000-0  22817-3 0  6371,2 19789  82.6097  99.3687 0016053  20.9845 339.1904 12.64928003698695,82.6097,0.0016053,12.64928003,99.3687,20.9845,339.1904
19789,COSMOS 1998,LEO,25333.27917907,1 19789U 89009E   25333.27917907  .00000049  00000-0  20554-3 0  9114,2 19789  82.6098  99.1162 0016038  20.1194 340.0527 12.64928007698746,82.6098,0.0016038,12.64928007,99.1162,20.1194,340.0527
19789,COSMOS 1998,LEO,25333.83284637,1 19789U 89009E   25333.83284637  .00000041  00000-0  16132-3 0  6399,2 19789  82.6099  98.7628 0016013  18.8068 341.3613 12.64928019698817,82.6099,0.0016013,12.64928019,98.7628,18.8068,341.3613
19789,COSMOS 1998,LEO,25334.07013242,1 19789U 89009E   25334.07013242  .00000036  00000-0  13554-3 0  6409,2 19789  82.6099  98.6113 0016000  18.2678 341.8986 12.64927997698847,82.6099,0.0016,12.64927997,98.6113,18.2678,341.8986
19789,COSMOS 1998,LEO,25334.30741843,1 19789U 89009E   25334.30741843  .00000032  00000-0  11699-3 0  6415,2 19789  82.6100  98.4599 0015990  17.7351 342.4296 12.64928008698873,82.61,0.001599,12.64928008,98.4599,17.7351,342.4296
19789,COSMOS 1998,LEO,25334.62379978,1 19789U 89009E   25334.62379978  .00000029  00000-0  96136-4 0  9189,2 19789  82.6100  98.2579 0015980  17.0275 343.1351 12.64927998698918,82.61,0.001598,12.64927998,98.2579,17.0275,343.1351
19789,COSMOS 1998,LEO,25334.78199046,1 19789U 89009E   25334.78199046  .00000027  00000-0  87319-4 0  6427,2 19789  82.6101  98.1570 0015973  16.6603 343.5011 12.64928001698936,82.6101,0.0015973,12.64928001,98.157,16.6603,343.5011
19789,COSMOS 1998,LEO,25334.86108582,1 19789U 89009E   25334.86108582  .00000023  00000-0  64922-4 0  9201,2 19789  82.6101  98.1065 0015971  16.4407 343.7201 12.64927975698946,82.6101,0.0015971,12.64927975,98.1065,16.4407,343.7201
19789,COSMOS 1998,LEO,25335.33565778,1 19789U 89009E   25335.33565778  .00000021  00000-0  53020-4 0  9236,2 19789  82.6101  97.8035 0015951  15.3440 344.8133 12.64927998699001,82.6101,0.0015951,12.64927998,97.8035,15.344,344.8133
19789,COSMOS 1998,LEO,25335.41475308,1 19789U 89009E   25335.41475308  .00000020  00000-0  47944-4 0  6441,2 19789  82.6101  97.7530 0015948  15.1510 345.0057 12.64928003699019,82.6101,0.0015948,12.64928003,97.753,15.151,345.0057
19789,COSMOS 1998,LEO,25335.57294372,1 19789U 89009E   25335.57294372  .00000018  00000-0  41963-4 0  9252,2 19789  82.6102  97.6521 0015942  14.7733 345.3822 12.64927997699031,82.6102,0.0015942,12.64927997,97.6521,14.7733,345.3822
19789,COSMOS 1998,LEO,25335.81022972,1 19789U 89009E   25335.81022972  .00000015  00000-0  24027-4 0  6452,2 19789  82.6103  97.5007 0015931  14.1984 345.9554 12.64927991699065,82.6103,0.0015931,12.64927991,97.5007,14.1984,345.9554
19789,COSMOS 1998,LEO,25336.28480174,1 19789U 89009E   25336.28480174  .00000009  00000-0 -81333-5 0  9288,2 19789  82.6103  97.1977 0015911  13.1436 347.0068 12.64927985699129,82.6103,0.0015911,12.64927985,97.1977,13.1436,347.0068
19789,COSMOS 1998,LEO,25336.44299235,1 19789U 89009E   25336.44299235  .00000006  00000-0 -27402-4 0  6462,2 19789  82.6103  97.0967 0015906  12.7404 347.4087 12.64927980699143,82.6103,0.0015906,12.6492798,97.0967,12.7404,347.4087
19789,COSMOS 1998,LEO,25336.60118301,1 19789U 89009E   25336.60118301  .00000004  00000-0 -35551-4 0  9313,2 19789  82.6104  96.9957 0015903  12.3441 347.8038 12.64927967699162,82.6104,0.0015903,12.64927967,96.9957,12.3441,347.8038
19789,COSMOS 1998,LEO,25336.83846897,1 19789U 89009E   25336.83846897  .00000008  00000-0 -16310-4 0  6476,2 19789  82.6105  96.8443 0015894  11.7975 348.3487 12.64928011699194,82.6105,0.0015894,12.64928011,96.8443,11.7975,348.3487
19789,COSMOS 1998,LEO,25337.31304095,1 19789U 89009E   25337.31304095  .00000012  00000-0  76640-5 0  9356,2 19789  82.6105  96.5414 0015877  10.6974 349.4454 12.64928049699251,82.6105,0.0015877,12.64928049,96.5414,10.6974,349.4454
19789,COSMOS 1998,LEO,25337.39213627,1 19789U 89009E   25337.39213627  .00000006  00000-0 -22925-4 0  6485,2 19789  82.6105  96.4909 0015876  10.4927 349.6494 12.64928018699267,82.6105,0.0015876,12.64928018,96.4909,10.4927,349.6494
19789,COSMOS 1998,LEO,25337.70851760,1 19789U 89009E   25337.70851760  .00000009  00000-0 -72382-5 0  6493,2 19789  82.6106  96.2889 0015861   9.7439 350.3958 12.64928012699309,82.6106,0.0015861,12.64928012,96.2889,9.7439,350.3958
19789,COSMOS 1998,LEO,25337.70851761,1 19789U 89009E   25337.70851761  .00000009  00000-0 -72382-5 0  9374,2 19789  82.6106  96.2889 0015861   9.7439 350.3958 12.64928012699309,82.6106,0.0015861,12.64928012,96.2889,9.7439,350.3958
